GLOBALSTAR M070 [+]     
1 32264U 07048B   24110.05778644 -.00000046  00000+0  32214-3 0  9990
2 32264  51.9766 340.5447 0000484  93.3603  54.0439 12.62290193761082
GLOBALSTAR M066 [+]     
1 32265U 07048C   24110.22676417 -.00000043  00000+0  34105-3 0  9993
2 32265  51.9665 202.0176 0000808 131.6943 245.8014 12.62260284763332
GLOBALSTAR M068 [-]     
1 32266U 07048D   24109.44059253 -.00000020  00000+0  46699-3 0  9995
2 32266  51.9864 156.9855 0000658 270.8470 192.5798 12.62785264763897
GLOBALSTAR M079 [+]     
1 37188U 10054A   24109.84352779 -.00000072  00000+0  17713-3 0  9999
2 37188  52.0061 351.5567 0000991  84.4475  38.9155 12.62268510622864
GLOBALSTAR M074 [+]     
1 37189U 10054B   24110.11660275 -.00000070  00000+0  18629-3 0  9990
2 37189  52.0036 350.1148 0000689  81.8379  82.3867 12.62267128623571
GLOBALSTAR M077 [+]     
1 37191U 10054D   24109.96774600 -.00000066  00000+0  21009-3 0  9993
2 37191  52.0074 307.4348 0000760 102.8956  44.4234 12.62271762623574
